OBJECT_NAME,OBJECT_ID,EPOCH,MEAN_MOTION,ECCENTRICITY,INCLINATION,RA_OF_ASC_NODE,ARG_OF_PERICENTER,MEAN_ANOMALY,EPHEMERIS_TYPE,CLASSIFICATION_TYPE,NORAD_CAT_ID,ELEMENT_SET_NO,REV_AT_EPOCH,BSTAR,MEAN_MOTION_DOT,MEAN_MOTION_DDOT
GLOBALSTAR M069,2007-020C,2026-06-18T03:50:53.710368,12.23471381,.00023186,52.0025,249.3728,150.0228,222.1586,0,U,31573,999,87892,.35455064E-3,-.54E-6,0
GLOBALSTAR M072,2007-020D,2026-06-18T03:49:49.708704,11.91658380,.00014181,51.9932,97.6563,335.0735,163.0186,0,U,31574,999,87509,-.1674365E-3,-.96E-6,0
GLOBALSTAR M066,2007-048C,2026-06-18T01:40:46.200288,12.30387558,.000551,51.9605,55.3781,45.9123,100.0309,0,U,32265,999,86033,-.37741075E-3,-.139E-5,0
GLOBALSTAR M079,2010-054A,2026-06-18T06:25:16.358880,12.62266120,.00007439,52.0035,105.3804,27.4404,137.0286,0,U,37188,999,72268,.43655188E-4,-.96E-6,0
GLOBALSTAR M074,2010-054B,2026-06-18T07:03:26.125632,12.62268396,.00005655,52.0010,104.5642,52.8975,112.3032,0,U,37189,999,72329,.5555062E-5,-.103E-5,0
GLOBALSTAR M076,2010-054C,2026-06-18T05:41:51.901728,12.62261811,.00007507,52.0023,104.9399,44.0495,103.6647,0,U,37190,999,72300,-.2933494E-5,-.104E-5,0
GLOBALSTAR M077,2010-054D,2026-06-18T07:25:53.872320,11.67547796,.00027109,51.9920,176.4468,174.4880,198.8985,0,U,37191,999,72127,-.27984664E-3,-.93E-6,0
GLOBALSTAR M075,2010-054E,2026-06-18T07:53:21.267168,12.62267357,.00002099,51.9922,146.7164,27.3992,115.3832,0,U,37192,999,72208,-.88054858E-4,-.12E-5,0
GLOBALSTAR M073,2010-054F,2026-06-17T22:03:37.718784,12.62262385,.00009397,52.0073,62.0641,49.6928,29.6724,0,U,37193,999,72402,.16478522E-3,-.74E-6,0
GLOBALSTAR M083,2011-033A,2026-06-18T00:41:59.299584,12.62263147,.00009393,51.9875,9.9569,68.0668,92.7460,0,U,37739,999,69305,.78529896E-4,-.9E-6,0
GLOBALSTAR M088,2011-033B,2026-06-18T06:58:19.502400,12.62268779,.00006792,52.0218,275.5933,128.8848,258.4536,0,U,37740,999,68863,.1414079E-3,-.78E-6,0
GLOBALSTAR M091,2011-033C,2026-06-18T05:19:46.858368,12.62264027,.00002782,51.9990,238.7656,155.5708,221.6078,0,U,37741,999,68941,.12939903E-3,-.81E-6,0
GLOBALSTAR M085,2011-033D,2026-06-18T01:15:42.052320,12.62264181,.00001372,52.0099,190.5733,300.3843,86.2706,0,U,37742,999,68990,-.19771618E-4,-.107E-5,0
GLOBALSTAR M081,2011-033E,2026-06-18T07:31:35.817600,12.62265122,.00001056,51.9932,192.2140,88.4525,284.6275,0,U,37743,999,69008,.9974662E-5,-.102E-5,0
GLOBALSTAR M089,2011-033F,2026-06-18T07:14:07.958400,12.62267245,.00003775,51.9907,146.4083,82.6692,56.1559,0,U,37744,999,69092,-.53441928E-4,-.113E-5,0
GLOBALSTAR M084,2011-080A,2026-06-18T00:04:45.005952,12.62267560,.0001097,52.0027,14.7976,86.9602,76.1520,0,U,38040,999,66886,.47574779E-4,-.95E-6,0
GLOBALSTAR M080,2011-080B,2026-06-18T01:17:25.881792,12.62269456,.00003904,52.0078,16.3625,69.5095,93.1203,0,U,38041,999,66899,.92188326E-4,-.87E-6,0
GLOBALSTAR M082,2011-080C,2026-06-17T15:43:37.187328,12.62263629,.00005287,52.0101,333.0768,99.0019,342.0144,0,U,38042,999,66965,.40721638E-4,-.96E-6,0
GLOBALSTAR M092,2011-080D,2026-06-18T04:53:12.844032,12.62267007,.00007202,52.0094,61.8040,64.6777,108.2680,0,U,38043,999,66817,.9064722E-4,-.88E-6,0
GLOBALSTAR M090,2011-080E,2026-06-17T05:26:22.498656,12.62269064,.000079,52.0142,328.3371,91.7049,79.5707,0,U,38044,999,66971,.16658462E-4,-.101E-5,0
GLOBALSTAR M086,2011-080F,2026-06-17T14:59:04.501824,12.62286738,.0001691,51.9914,327.0559,68.5234,11.9009,0,U,38045,999,66971,.67183E-4,-.92E-6,0
GLOBALSTAR M097,2013-005A,2026-06-18T06:30:55.639584,12.62247241,.00002729,52.0038,240.0368,127.5684,232.5208,0,U,39072,999,61704,.73890909E-4,-.91E-6,0
GLOBALSTAR M093,2013-005B,2026-06-18T03:58:18.564960,12.62266007,.00001839,52.0095,233.7059,87.0459,273.0429,0,U,39073,999,61698,.11052673E-3,-.84E-6,0
GLOBALSTAR M094,2013-005C,2026-06-18T02:04:07.800960,12.62268549,.00004314,51.9932,148.0613,5.2996,354.7876,0,U,39074,999,61858,-.13869713E-3,-.129E-5,0
GLOBALSTAR M096,2013-005D,2026-06-18T02:23:32.537760,12.62265686,.00000537,52.0047,196.8237,304.5220,55.5642,0,U,39075,999,61750,-.197466E-5,-.104E-5,0
GLOBALSTAR M078,2013-005E,2026-06-18T07:26:46.321440,12.62257509,.00005162,51.9883,280.1907,232.0423,128.0397,0,U,39076,999,61615,-.31795379E-3,-.161E-5,0
GLOBALSTAR M095,2013-005F,2026-06-18T06:11:15.489888,12.62263462,.0000208,52.0089,277.9562,132.3570,227.7314,0,U,39077,999,61600,.12673298E-3,-.81E-6,0
GLOBALSTAR M087,2022-064A,2026-06-18T00:48:14.468256,12.62269075,.00007733,52.0010,59.8759,40.7001,319.3923,0,U,52888,999,19124,.88387756E-4,-.88E-6,0
