GLOBALSTAR M069         
1 31573U 07020C   26169.16034387 -.00000054  00000+0  35455-3 0  9998
2 31573  52.0025 249.3728 0002318 150.0228 222.1586 12.23471381878924
GLOBALSTAR M072         
1 31574U 07020D   26169.15960311 -.00000096  00000+0 -16744-3 0  9990
2 31574  51.9932  97.6563 0001418 335.0735 163.0186 11.91658380875093
GLOBALSTAR M066         
1 32265U 07048C   26169.06997917 -.00000139  00000+0 -37741-3 0  9998
2 32265  51.9605  55.3781 0005510  45.9123 100.0309 12.30387558860335
GLOBALSTAR M079         
1 37188U 10054A   26169.26755045 -.00000096  00000+0  43655-4 0  9997
2 37188  52.0035 105.3804 0000743  27.4404 137.0286 12.62266120722680
GLOBALSTAR M074         
1 37189U 10054B   26169.29405238 -.00000103  00000+0  55551-5 0  9995
2 37189  52.0010 104.5642 0000565  52.8975 112.3032 12.62268396723292
GLOBALSTAR M076         
1 37190U 10054C   26169.23740627 -.00000104  00000+0 -29335-5 0  9998
2 37190  52.0023 104.9399 0000750  44.0495 103.6647 12.62261811723006
GLOBALSTAR M077         
1 37191U 10054D   26169.30965130 -.00000093  00000+0 -27985-3 0  9999
2 37191  51.9920 176.4468 0002710 174.4880 198.8985 11.67547796721277
GLOBALSTAR M075         
1 37192U 10054E   26169.32871837 -.00000120  00000+0 -88055-4 0  9999
2 37192  51.9922 146.7164 0000209  27.3992 115.3832 12.62267357722087
GLOBALSTAR M073         
1 37193U 10054F   26168.91918656 -.00000074  00000+0  16479-3 0  9992
2 37193  52.0073  62.0641 0000939  49.6928  29.6724 12.62262385724022
GLOBALSTAR M083         
1 37739U 11033A   26169.02915856 -.00000090  00000+0  78530-4 0  9993
2 37739  51.9875   9.9569 0000939  68.0668  92.7460 12.62263147693054
GLOBALSTAR M088         
1 37740U 11033B   26169.29050350 -.00000078  00000+0  14141-3 0  9996
2 37740  52.0218 275.5933 0000679 128.8848 258.4536 12.62268779688630
GLOBALSTAR M091         
1 37741U 11033C   26169.22207012 -.00000081  00000+0  12940-3 0  9998
2 37741  51.9990 238.7656 0000278 155.5708 221.6078 12.62264027689418
GLOBALSTAR M085         
1 37742U 11033D   26169.05257005 -.00000107  00000+0 -19772-4 0  9998
2 37742  52.0099 190.5733 0000137 300.3843  86.2706 12.62264181689904
GLOBALSTAR M081         
1 37743U 11033E   26169.31360900 -.00000102  00000+0  99747-5 0  9992
2 37743  51.9932 192.2140 0000105  88.4525 284.6275 12.62265122690088
GLOBALSTAR M089         
1 37744U 11033F   26169.30148100 -.00000113  00000+0 -53442-4 0  9992
2 37744  51.9907 146.4083 0000377  82.6692  56.1559 12.62267245690928
GLOBALSTAR M084         
1 38040U 11080A   26169.00329868 -.00000095  00000+0  47575-4 0  9991
2 38040  52.0027  14.7976 0001097  86.9602  76.1520 12.62267560668867
GLOBALSTAR M080         
1 38041U 11080B   26169.05377178 -.00000087  00000+0  92188-4 0  9995
2 38041  52.0078  16.3625 0000390  69.5095  93.1203 12.62269456668998
GLOBALSTAR M082         
1 38042U 11080C   26168.65529152 -.00000096  00000+0  40722-4 0  9999
2 38042  52.0101 333.0768 0000528  99.0019 342.0144 12.62263629669650
GLOBALSTAR M092         
1 38043U 11080D   26169.20362088 -.00000088  00000+0  90647-4 0  9997
2 38043  52.0094  61.8040 0000720  64.6777 108.2680 12.62267007668171
GLOBALSTAR M090         
1 38044U 11080E   26168.22664929 -.00000101  00000+0  16658-4 0  9994
2 38044  52.0142 328.3371 0000790  91.7049  79.5707 12.62269064669710
GLOBALSTAR M086         
1 38045U 11080F   26168.62435766 -.00000092  00000+0  67183-4 0  9992
2 38045  51.9914 327.0559 0001691  68.5234  11.9009 12.62286738669711
GLOBALSTAR M097         
1 39072U 13005A   26169.27147731 -.00000091  00000+0  73891-4 0  9998
2 39072  52.0038 240.0368 0000272 127.5684 232.5208 12.62247241617049
GLOBALSTAR M093         
1 39073U 13005B   26169.16549265 -.00000084  00000+0  11053-3 0  9998
2 39073  52.0095 233.7059 0000183  87.0459 273.0429 12.62266007616988
GLOBALSTAR M094         
1 39074U 13005C   26169.08620140 -.00000129  00000+0 -13870-3 0  9992
2 39074  51.9932 148.0613 0000431   5.2996 354.7876 12.62268549618589
GLOBALSTAR M096         
1 39075U 13005D   26169.09968215 -.00000104  00000+0 -19747-5 0  9996
2 39075  52.0047 196.8237 0000053 304.5220  55.5642 12.62265686617504
GLOBALSTAR M078         
1 39076U 13005E   26169.31025835 -.00000161  00000+0 -31795-3 0  9992
2 39076  51.9883 280.1907 0000516 232.0423 128.0397 12.62257509616154
GLOBALSTAR M095         
1 39077U 13005F   26169.25781817 -.00000081  00000+0  12673-3 0  9999
2 39077  52.0089 277.9562 0000208 132.3570 227.7314 12.62263462616004
GLOBALSTAR M087         
1 52888U 22064A   26169.03350079 -.00000088  00000+0  88388-4 0  9991
2 52888  52.0010  59.8759 0000773  40.7001 319.3923 12.62269075191240
